JCSAT-17                
1 45245U 20013A   20103.02031563 -.00000337  00000-0  00000-0 0  9996
2 45245   6.9691 344.0925 0003197  51.1667 308.7238  1.00273386   614
GEO-KOMPSAT-2B          
1 45246U 20013B   20103.51646497 -.00000362  00000-0  00000+0 0  9996
2 45246   0.0359 348.9044 0000861 338.3810 188.0417  1.00273089   620
BEIDOU-3 G2             
1 45344U 20017A   20103.61530418 -.00000160  00000-0  00000-0 0  9992
2 45344   3.0655 327.2991 0002641  59.1292 116.3574  1.00271258   648
